[{"OBJECT_NAME":"METEOR-M2 4","OBJECT_ID":"2024-039A","EPOCH":"2026-03-10T00:01:13.262016","MEAN_MOTION":14.22417348,"ECCENTRICITY":0.0008181,"INCLINATION":98.6907,"RA_OF_ASC_NODE":29.6041,"ARG_OF_PERICENTER":95.5481,"MEAN_ANOMALY":264.6631,"EPHEMERIS_TYPE":0,"CLASSIFICATION_TYPE":"U","NORAD_CAT_ID":59051,"ELEMENT_SET_NO":999,"REV_AT_EPOCH":10516,"BSTAR":5.4288673e-5,"MEAN_MOTION_DOT":7.7e-7,"MEAN_MOTION_DDOT":0},{"OBJECT_NAME":"CZ-6A DEB","OBJECT_ID":"2022-151NR","EPOCH":"2026-03-09T22:13:11.276544","MEAN_MOTION":14.10428912,"ECCENTRICITY":0.00545356,"INCLINATION":98.8433,"RA_OF_ASC_NODE":67.5398,"ARG_OF_PERICENTER":242.2309,"MEAN_ANOMALY":117.3326,"EPHEMERIS_TYPE":0,"CLASSIFICATION_TYPE":"U","NORAD_CAT_ID":54615,"ELEMENT_SET_NO":999,"REV_AT_EPOCH":17015,"BSTAR":0.00067659946,"MEAN_MOTION_DOT":1.176e-5,"MEAN_MOTION_DDOT":0}]
